{
  "norad_id": 44034,
  "name": "HELLAS-SAT 4 & SGS-1",
  "history": [
    {
      "epoch": "2026-03-28T19:54:38.600352",
      "apogee_km": 35800.91848331575,
      "perigee_km": 35773.08106001909,
      "latitude_deg": 0.024726513143169114,
      "longitude_deg": 103.04288928001188,
      "semi_major_axis_km": 42165.13677166742,
      "eccentricity": 0.0003301,
      "inclination_deg": 0.0702,
      "raan_deg": 124.6416,
      "arg_perigee_deg": 14.9394,
      "mean_anomaly_deg": 24.33,
      "mean_motion_rev_day": 1.00270341
    }
  ]
}